{
  "norad_id": 67970,
  "name": "STARLINK-36319",
  "history": [
    {
      "epoch": "2026-05-01T23:16:21.520128Z",
      "apogee_km": 466.54811451752266,
      "perigee_km": 464.515544875102,
      "latitude_deg": -6.062314665886143e-05,
      "longitude_deg": -76.67271543440198,
      "height_km": 468.69688351419285,
      "semi_major_axis_km": 6843.668829696312,
      "eccentricity": 0.0001485,
      "inclination_deg": 97.2842,
      "raan_deg": 132.3114,
      "arg_perigee_deg": 93.1225,
      "mean_anomaly_deg": 267.0187,
      "mean_motion_rev_day": 15.33448813
    },
    {
      "epoch": "2026-05-03T14:25:32.903328Z",
      "apogee_km": 466.37785111037283,
      "perigee_km": 464.6067198512901,
      "latitude_deg": 4.688044905223989e-05,
      "longitude_deg": 56.02697359658096,
      "height_km": 468.8985240542338,
      "semi_major_axis_km": 6843.629285480831,
      "eccentricity": 0.0001294,
      "inclination_deg": 97.2807,
      "raan_deg": 133.9165,
      "arg_perigee_deg": 109.5234,
      "mean_anomaly_deg": 250.6149,
      "mean_motion_rev_day": 15.33462104
    },
    {
      "epoch": "2026-05-04T18:36:58.248288Z",
      "apogee_km": 466.6067617668605,
      "perigee_km": 464.45648108600744,
      "latitude_deg": -2.7264048295180055e-05,
      "longitude_deg": -6.826562459318915,
      "height_km": 468.85206353196776,
      "semi_major_axis_km": 6843.668621426434,
      "eccentricity": 0.0001571,
      "inclination_deg": 97.2817,
      "raan_deg": 135.0763,
      "arg_perigee_deg": 101.304,
      "mean_anomaly_deg": 258.8379,
      "mean_motion_rev_day": 15.33448883
    }
  ]
}